IRIDIUM 166             
1 43570U 18061B   24306.54171897  .00000456  00000+0  15573-3 0  9990
2 43570  86.3921 304.4060 0002442  85.5226 274.6249 14.34219579328458
IRIDIUM 158             
1 43571U 18061C   24306.50998047 -.00000026  00000+0 -16262-4 0  9993
2 43571  86.3922 304.4291 0002269  90.4999 269.6457 14.34216349328418
IRIDIUM 165             
1 43572U 18061D   24306.53535234  .00000315  00000+0  10556-3 0  9990
2 43572  86.3921 304.4533 0002137  88.1637 271.9804 14.34218398328445
IRIDIUM 155             
1 43573U 18061E   24306.49729657  .00000408  00000+0  13852-3 0  9995
2 43573  86.3917 304.3674 0002444  89.0548 271.0927 14.34217570328402
IRIDIUM 154             
1 43574U 18061F   24306.47826651  .00000052  00000+0  11418-4 0  9998
2 43574  86.3926 304.4796 0002113  91.3321 268.8117 14.34217569328455
IRIDIUM 163             
1 43575U 18061G   24306.52900822  .00000215  00000+0  69637-4 0  9995
2 43575  86.3921 304.3925 0002291  94.2574 265.8884 14.34218492328435
IRIDIUM 156             
1 43576U 18061H   24306.50363977 -.00000009  00000+0 -10235-4 0  9991
2 43576  86.3920 304.4099 0002412  86.1253 274.0218 14.34217595328422
IRIDIUM 164             
1 43577U 18061J   24306.41484262  .00000144  00000+0  44247-4 0  9991
2 43577  86.3927 304.4782 0002164  85.7439 274.4004 14.34218474328451
